43578,IRIDIUM 159,2018,100.4,860.0,+,86.39,Active,1,LEO,USA,USA,Commercial/Government,Communications,Falcon,1 43578U 18061K   24041.54183138  .00000114  00000+0  33468-4 0  9990,2 43578  86.3925  55.1251 0002282  87.9403 272.2054 14.34217011290452,14.34217011,0.0002282,LEO
43922,IRIDIUM 180,2019,100.4,860.0,+,86.4,Active,1,LEO,USA,USA,Commercial/Government,Communications,Falcon,1 43922U 19002A   24041.40179221 -.00000089  00000+0 -39000-4 0  9993,2 43922  86.4007 352.0778 0002164  87.0626 273.0817 14.34216185266042,14.34216185,0.0002164,LEO
43923,IRIDIUM 176,2019,97.81,860.0,+,86.61,Active,1,LEO,USA,USA,Commercial/Government,Communications,Falcon,1 43923U 19002B   24041.40651564  .00002195  00000+0  34413-3 0  9999,2 43923  86.6139 352.1045 0002398  89.4748 270.6744 14.72250542273046,14.72250542,0.0002398,LEO
43924,IRIDIUM 168,2019,100.4,860.0,+,86.4,Active,1,LEO,USA,USA,Commercial/Government,Communications,Falcon,1 43924U 19002C   24041.39544933  .00000660  00000+0  22864-3 0  9991,2 43924  86.4014 352.1336 0002237  86.3715 273.7736 14.34218116266026,14.34218116,0.0002237,LEO
43925,IRIDIUM 173,2019,100.4,860.0,+,86.4,Active,1,LEO,USA,USA,Commercial/Government,Communications,Falcon,1 43925U 19002D   24041.38276131  .00000390  00000+0  13232-3 0  9992,2 43925  86.4011 352.0631 0002190  84.4274 275.7171 14.34219599266007,14.34219599,0.000219,LEO
43926,IRIDIUM 169,2019,100.1,860.0,+,86.42,Active,1,LEO,USA,USA,Commercial/Government,Communications,Falcon,1 43926U 19002E   24041.49050039  .00000809  00000+0  25805-3 0  9996,2 43926  86.4231  23.6125 0001063 345.4570  14.6598 14.38613119266911,14.38613119,0.0001063,LEO
43927,IRIDIUM 172,2019,100.4,860.0,+,86.4,Active,1,LEO,USA,USA,Commercial/Government,Communications,Falcon,1 43927U 19002F   24041.37641166  .00000664  00000+0  22993-3 0  9995,2 43927  86.4010 352.0706 0002250  87.4761 272.6692 14.34216349266017,14.34216349,0.000225,LEO
43928,IRIDIUM 175,2019,97.81,860.0,+,86.16,Active,1,LEO,USA,USA,Commercial/Government,Communications,Falcon,1 43928U 19002G   24041.33262005  .00002139  00000+0  33523-3 0  9993,2 43928  86.1550 332.5175 0002318  83.3613 276.7867 14.72243439273023,14.72243439,0.0002318,LEO
